{"type": "FeatureCollection", "features": [ {"type": "Feature", "properties": {"norad_id": 45344, "name": "BEIDOU-3 G2 (C60)", "group": "gnss", "lat": 2.262205615301991, "lon": 108.14432981432249, "alt_km": 35802.57214518518, "timestamp": "2025-12-09T20:37:09.529739+00:00", "meta": {"OBJECT_NAME": "BEIDOU-3 G2 (C60)", "OBJECT_ID": "2020-017A", "EPOCH": "2025-12-08T17:24:33.367680", "MEAN_MOTION": 1.00273181, "ECCENTRICITY": 0.00043587, "INCLINATION": 2.49, "RA_OF_ASC_NODE": 43.8378, "ARG_OF_PERICENTER": 265.5358, "MEAN_ANOMALY": 109.5017, "EPHEMERIS_TYPE": 0, "CLASSIFICATION_TYPE": "U", "NORAD_CAT_ID": 45344, "ELEMENT_SET_NO": 999, "REV_AT_EPOCH": 2135, "BSTAR": 0, "MEAN_MOTION_DOT": -1.39e-06, "MEAN_MOTION_DDOT": 0}, "tle": {"line1": "1 45344U 20017A   25342.72538620 -.00000139  00000+0  00000+0 0  9991", "line2": "2 45344   2.4900  43.8378 0004358 265.5358 109.5017  1.00273181 21351"}}, "geometry": {"type": "Point", "coordinates": [108.14432981432249, 2.262205615301991]}}, {"type": "Feature", "properties": {"norad_id": 45358, "name": "COSMOS 2545 (760)", "group": "gnss", "lat": 13.287953312105474, "lon": 132.58067833940638, "alt_km": 19125.246023315853, "timestamp": "2025-12-09T20:37:09.529751+00:00", "meta": {"OBJECT_NAME": "COSMOS 2545 (760)", "OBJECT_ID": "2020-018A", "EPOCH": "2025-12-09T04:10:52.430880", "MEAN_MOTION": 2.13102242, "ECCENTRICITY": 0.00118935, "INCLINATION": 64.4718, "RA_OF_ASC_NODE": 319.095, "ARG_OF_PERICENTER": 248.7657, "MEAN_ANOMALY": 111.1032, "EPHEMERIS_TYPE": 0, "CLASSIFICATION_TYPE": "U", "NORAD_CAT_ID": 45358, "ELEMENT_SET_NO": 999, "REV_AT_EPOCH": 4461, "BSTAR": 0, "MEAN_MOTION_DOT": -5e-07, "MEAN_MOTION_DDOT": 0}, "tle": {"line1": "1 45358U 20018A   25343.17421795 -.00000050  00000+0  00000+0 0  9993", "line2": "2 45358  64.4718 319.0950 0011893 248.7657 111.1032  2.13102242 44616"}}, "geometry": {"type": "Point", "coordinates": [132.58067833940638, 13.287953312105474]}}, {"type": "Feature", "properties": {"norad_id": 45807, "name": "BEIDOU-3 G3 (C61)", "group": "gnss", "lat": 1.8976637411705868, "lon": 138.70503859538502, "alt_km": 35799.64548133818, "timestamp": "2025-12-09T20:37:09.529764+00:00", "meta": {"OBJECT_NAME": "BEIDOU-3 G3 (C61)", "OBJECT_ID": "2020-040A", "EPOCH": "2025-12-08T17:33:17.532288", "MEAN_MOTION": 1.00275813, "ECCENTRICITY": 0.00060306, "INCLINATION": 1.9816, "RA_OF_ASC_NODE": 66.5886, "ARG_OF_PERICENTER": 306.262, "MEAN_ANOMALY": 78.7159, "EPHEMERIS_TYPE": 0, "CLASSIFICATION_TYPE": "U", "NORAD_CAT_ID": 45807, "ELEMENT_SET_NO": 999, "REV_AT_EPOCH": 2016, "BSTAR": 0, "MEAN_MOTION_DOT": -3.52e-06, "MEAN_MOTION_DDOT": 0}, "tle": {"line1": "1 45807U 20040A   25342.73145292 -.00000352  00000+0  00000+0 0  9998", "line2": "2 45807   1.9816  66.5886 0006030 306.2620  78.7159  1.00275813 20161"}}, "geometry": {"type": "Point", "coordinates": [138.70503859538502, 1.8976637411705868]}}, {"type": "Feature", "properties": {"norad_id": 45854, "name": "GPS BIII-3  (PRN 23)", "group": "gnss", "lat": 48.61601154310734, "lon": 84.88713833451347, "alt_km": 20298.045886145792, "timestamp": "2025-12-09T20:37:09.529776+00:00", "meta": {"OBJECT_NAME": "GPS BIII-3  (PRN 23)", "OBJECT_ID": "2020-041A", "EPOCH": "2025-12-09T06:59:18.994848", "MEAN_MOTION": 2.0056182, "ECCENTRICITY": 0.0060408, "INCLINATION": 56.5448, "RA_OF_ASC_NODE": 36.3195, "ARG_OF_PERICENTER": 203.3087, "MEAN_ANOMALY": 171.1637, "EPHEMERIS_TYPE": 0, "CLASSIFICATION_TYPE": "U", "NORAD_CAT_ID": 45854, "ELEMENT_SET_NO": 999, "REV_AT_EPOCH": 4023, "BSTAR": 0, "MEAN_MOTION_DOT": -8.4e-07, "MEAN_MOTION_DDOT": 0}, "tle": {"line1": "1 45854U 20041A   25343.29119207 -.00000084  00000+0  00000+0 0  9992", "line2": "2 45854  56.5448  36.3195 0060408 203.3087 171.1637  2.00561820 40237"}}, "geometry": {"type": "Point", "coordinates": [84.88713833451347, 48.61601154310734]}}, {"type": "Feature", "properties": {"norad_id": 46114, "name": "GALAXY 30 (WAAS/PRN 135)", "group": "gnss", "lat": -0.035612063043319625, "lon": -96.87129852660662, "alt_km": 35776.09773592329, "timestamp": "2025-12-09T20:37:09.529787+00:00", "meta": {"OBJECT_NAME": "GALAXY 30 (WAAS/PRN 135)", "OBJECT_ID": "2020-056C", "EPOCH": "2025-12-09T09:54:15.136416", "MEAN_MOTION": 1.00271447, "ECCENTRICITY": 0.0002386, "INCLINATION": 0.0167, "RA_OF_ASC_NODE": 3.1394, "ARG_OF_PERICENTER": 254.3856, "MEAN_ANOMALY": 204.4379, "EPHEMERIS_TYPE": 0, "CLASSIFICATION_TYPE": "U", "NORAD_CAT_ID": 46114, "ELEMENT_SET_NO": 999, "REV_AT_EPOCH": 1939, "BSTAR": 0, "MEAN_MOTION_DOT": 3.9e-07, "MEAN_MOTION_DDOT": 0}, "tle": {"line1": "1 46114U 20056C   25343.41267519  .00000039  00000+0  00000+0 0  9991", "line2": "2 46114   0.0167   3.1394 0002386 254.3856 204.4379  1.00271447 19391"}}, "geometry": {"type": "Point", "coordinates": [-96.87129852660662, -0.035612063043319625]}}, {"type": "Feature", "properties": {"norad_id": 46805, "name": "COSMOS 2547 (705K)", "group": "gnss", "lat": 19.025041112365464, "lon": -151.77192562849024, "alt_km": 19142.397432759266, "timestamp": "2025-12-09T20:37:09.529798+00:00", "meta": {"OBJECT_NAME": "COSMOS 2547 (705K)", "OBJECT_ID": "2020-075A", "EPOCH": "2025-12-08T21:25:56.196192", "MEAN_MOTION": 2.13099854, "ECCENTRICITY": 0.00063847, "INCLINATION": 64.5958, "RA_OF_ASC_NODE": 198.8249, "ARG_OF_PERICENTER": 229.7163, "MEAN_ANOMALY": 130.3027, "EPHEMERIS_TYPE": 0, "CLASSIFICATION_TYPE": "U", "NORAD_CAT_ID": 46805, "ELEMENT_SET_NO": 999, "REV_AT_EPOCH": 3985, "BSTAR": 0, "MEAN_MOTION_DOT": 4.5e-07, "MEAN_MOTION_DDOT": 0}, "tle": {"line1": "1 46805U 20075A   25342.89301153  .00000045  00000+0  00000+0 0  9990", "line2": "2 46805  64.5958 198.8249 0006384 229.7163 130.3027  2.13099854 39856"}}, "geometry": {"type": "Point", "coordinates": [-151.77192562849024, 19.025041112365464]}}, {"type": "Feature", "properties": {"norad_id": 46826, "name": "GPS BIII-4  (PRN 14)", "group": "gnss", "lat": 27.820778910195124, "lon": -119.00010682666033, "alt_km": 20346.58362965552, "timestamp": "2025-12-09T20:37:09.529809+00:00", "meta": {"OBJECT_NAME": "GPS BIII-4  (PRN 14)", "OBJECT_ID": "2020-078A", "EPOCH": "2025-12-08T14:24:03.317760", "MEAN_MOTION": 2.00566768, "ECCENTRICITY": 0.0064574, "INCLINATION": 54.0161, "RA_OF_ASC_NODE": 218.509, "ARG_OF_PERICENTER": 203.354, "MEAN_ANOMALY": 2.942, "EPHEMERIS_TYPE": 0, "CLASSIFICATION_TYPE": "U", "NORAD_CAT_ID": 46826, "ELEMENT_SET_NO": 999, "REV_AT_EPOCH": 3768, "BSTAR": 0, "MEAN_MOTION_DOT": 1.6e-07, "MEAN_MOTION_DDOT": 0}, "tle": {"line1": "1 46826U 20078A   25342.60003840  .00000016  00000+0  00000+0 0  9995", "line2": "2 46826  54.0161 218.5090 0064574 203.3540   2.9420  2.00566768 37684"}}, "geometry": {"type": "Point", "coordinates": [-119.00010682666033, 27.820778910195124]}}, {"type": "Feature", "properties": {"norad_id": 48859, "name": "GPS BIII-5  (PRN 11)", "group": "gnss", "lat": -32.561540193167595, "lon": -173.6336765214233, "alt_km": 20123.18485262622, "timestamp": "2025-12-09T20:37:09.529820+00:00", "meta": {"OBJECT_NAME": "GPS BIII-5  (PRN 11)", "OBJECT_ID": "2021-054A", "EPOCH": "2025-12-08T04:14:32.423424", "MEAN_MOTION": 2.00553628, "ECCENTRICITY": 0.0024681, "INCLINATION": 55.2581, "RA_OF_ASC_NODE": 340.1367, "ARG_OF_PERICENTER": 233.3965, "MEAN_ANOMALY": 212.8622, "EPHEMERIS_TYPE": 0, "CLASSIFICATION_TYPE": "U", "NORAD_CAT_ID": 48859, "ELEMENT_SET_NO": 999, "REV_AT_EPOCH": 3292, "BSTAR": 0, "MEAN_MOTION_DOT": -8.6e-07, "MEAN_MOTION_DDOT": 0}, "tle": {"line1": "1 48859U 21054A   25342.17676416 -.00000086  00000+0  00000+0 0  9993", "line2": "2 48859  55.2581 340.1367 0024681 233.3965 212.8622  2.00553628 32928"}}, "geometry": {"type": "Point", "coordinates": [-173.6336765214233, -32.561540193167595]}}, {"type": "Feature", "properties": {"norad_id": 49336, "name": "QZS-1R (QZSS/PRN 196)", "group": "gnss", "lat": 36.693943251893074, "lon": 162.59522466696586, "alt_km": 38909.68745489505, "timestamp": "2025-12-09T20:37:09.529840+00:00", "meta": {"OBJECT_NAME": "QZS-1R (QZSS/PRN 196)", "OBJECT_ID": "2021-096A", "EPOCH": "2025-12-08T14:42:38.556864", "MEAN_MOTION": 1.00258569, "ECCENTRICITY": 0.07543626, "INCLINATION": 37.0693, "RA_OF_ASC_NODE": 82.4203, "ARG_OF_PERICENTER": 271.2519, "MEAN_ANOMALY": 79.6136, "EPHEMERIS_TYPE": 0, "CLASSIFICATION_TYPE": "U", "NORAD_CAT_ID": 49336, "ELEMENT_SET_NO": 999, "REV_AT_EPOCH": 1509, "BSTAR": 0, "MEAN_MOTION_DOT": -2.65e-06, "MEAN_MOTION_DDOT": 0}, "tle": {"line1": "1 49336U 21096A   25342.61294626 -.00000265  00000+0  00000+0 0  9997", "line2": "2 49336  37.0693  82.4203 0754362 271.2519  79.6136  1.00258569 15091"}}, "geometry": {"type": "Point", "coordinates": [162.59522466696586, 36.693943251893074]}}, {"type": "Feature", "properties": {"norad_id": 49809, "name": "GSAT0223 (GALILEO 27)", "group": "gnss", "lat": -20.91586283273836, "lon": -178.95394041794728, "alt_km": 23215.245169208472, "timestamp": "2025-12-09T20:37:09.529852+00:00", "meta": {"OBJECT_NAME": "GSAT0223 (GALILEO 27)", "OBJECT_ID": "2021-116A", "EPOCH": "2025-12-08T12:32:15.823104", "MEAN_MOTION": 1.70475635, "ECCENTRICITY": 0.00046796, "INCLINATION": 57.2201, "RA_OF_ASC_NODE": 346.8263, "ARG_OF_PERICENTER": 251.0345, "MEAN_ANOMALY": 213.7248, "EPHEMERIS_TYPE": 0, "CLASSIFICATION_TYPE": "U", "NORAD_CAT_ID": 49809, "ELEMENT_SET_NO": 999, "REV_AT_EPOCH": 2493, "BSTAR": 0, "MEAN_MOTION_DOT": -8.6e-07, "MEAN_MOTION_DDOT": 0}, "tle": {"line1": "1 49809U 21116A   25342.52240536 -.00000086  00000+0  00000+0 0  9997", "line2": "2 49809  57.2201 346.8263 0004679 251.0345 213.7248  1.70475635 24930"}}, "geometry": {"type": "Point", "coordinates": [-178.95394041794728, -20.91586283273836]}}]}